[{"OBJECT_NAME":"SL-16 R/B","OBJECT_ID":"1993-059B","EPOCH":"2026-03-17T04:05:10.610880","MEAN_MOTION":14.17232447,"ECCENTRICITY":0.00180981,"INCLINATION":70.9931,"RA_OF_ASC_NODE":355.3525,"ARG_OF_PERICENTER":205.563,"MEAN_ANOMALY":154.4601,"EPHEMERIS_TYPE":0,"CLASSIFICATION_TYPE":"U","NORAD_CAT_ID":22803,"ELEMENT_SET_NO":999,"REV_AT_EPOCH":68059,"BSTAR":0.00012741415,"MEAN_MOTION_DOT":2.1e-6,"MEAN_MOTION_DDOT":0},{"OBJECT_NAME":"ARIANE 40 R/B","OBJECT_ID":"1993-061H","EPOCH":"2026-03-17T04:05:24.956736","MEAN_MOTION":14.32864934,"ECCENTRICITY":0.00095789,"INCLINATION":98.4902,"RA_OF_ASC_NODE":144.9099,"ARG_OF_PERICENTER":260.3568,"MEAN_ANOMALY":99.6534,"EPHEMERIS_TYPE":0,"CLASSIFICATION_TYPE":"U","NORAD_CAT_ID":22830,"ELEMENT_SET_NO":999,"REV_AT_EPOCH":69517,"BSTAR":8.5853943e-5,"MEAN_MOTION_DOT":1.91e-6,"MEAN_MOTION_DDOT":0},{"OBJECT_NAME":"COSMOS 2278","OBJECT_ID":"1994-023A","EPOCH":"2026-03-16T14:23:03.314688","MEAN_MOTION":14.14379394,"ECCENTRICITY":0.00085313,"INCLINATION":71.0546,"RA_OF_ASC_NODE":160.643,"ARG_OF_PERICENTER":1.0318,"MEAN_ANOMALY":359.0821,"EPHEMERIS_TYPE":0,"CLASSIFICATION_TYPE":"U","NORAD_CAT_ID":23087,"ELEMENT_SET_NO":999,"REV_AT_EPOCH":64578,"BSTAR":-3.7211975e-5,"MEAN_MOTION_DOT":-1.18e-6,"MEAN_MOTION_DDOT":0},{"OBJECT_NAME":"SL-16 R/B","OBJECT_ID":"1994-023B","EPOCH":"2026-03-17T04:59:52.952928","MEAN_MOTION":14.1500998,"ECCENTRICITY":0.00055786,"INCLINATION":70.999,"RA_OF_ASC_NODE":55.0959,"ARG_OF_PERICENTER":278.2173,"MEAN_ANOMALY":81.8316,"EPHEMERIS_TYPE":0,"CLASSIFICATION_TYPE":"U","NORAD_CAT_ID":23088,"ELEMENT_SET_NO":999,"REV_AT_EPOCH":64715,"BSTAR":-2.1200545e-5,"MEAN_MOTION_DOT":-8.9e-7,"MEAN_MOTION_DDOT":0},{"OBJECT_NAME":"SL-16 R/B","OBJECT_ID":"1994-074B","EPOCH":"2026-03-17T02:22:08.861088","MEAN_MOTION":14.79416632,"ECCENTRICITY":0.00063566,"INCLINATION":97.7098,"RA_OF_ASC_NODE":106.6163,"ARG_OF_PERICENTER":184.5792,"MEAN_ANOMALY":239.9711,"EPHEMERIS_TYPE":0,"CLASSIFICATION_TYPE":"U","NORAD_CAT_ID":23343,"ELEMENT_SET_NO":999,"REV_AT_EPOCH":68834,"BSTAR":6.3956945e-5,"MEAN_MOTION_DOT":4.28e-6,"MEAN_MOTION_DDOT":0},{"OBJECT_NAME":"SL-16 R/B","OBJECT_ID":"1994-077B","EPOCH":"2026-03-17T04:29:12.695136","MEAN_MOTION":14.15564072,"ECCENTRICITY":0.00026599,"INCLINATION":70.9851,"RA_OF_ASC_NODE":336.7178,"ARG_OF_PERICENTER":202.9854,"MEAN_ANOMALY":157.115,"EPHEMERIS_TYPE":0,"CLASSIFICATION_TYPE":"U","NORAD_CAT_ID":23405,"ELEMENT_SET_NO":999,"REV_AT_EPOCH":61729,"BSTAR":0.00017860452,"MEAN_MOTION_DOT":3.02e-6,"MEAN_MOTION_DDOT":0},{"OBJECT_NAME":"ARIANE 40+ R/B","OBJECT_ID":"1995-021B","EPOCH":"2026-03-17T04:22:11.413056","MEAN_MOTION":14.39777885,"ECCENTRICITY":0.00078812,"INCLINATION":98.4483,"RA_OF_ASC_NODE":147.5628,"ARG_OF_PERICENTER":116.9215,"MEAN_ANOMALY":297.697,"EPHEMERIS_TYPE":0,"CLASSIFICATION_TYPE":"U","NORAD_CAT_ID":23561,"ELEMENT_SET_NO":999,"REV_AT_EPOCH":62032,"BSTAR":9.7195684e-5,"MEAN_MOTION_DOT":2.61e-6,"MEAN_MOTION_DDOT":0},{"OBJECT_NAME":"SL-16 R/B","OBJECT_ID":"1995-058B","EPOCH":"2026-03-16T23:34:30.491040","MEAN_MOTION":14.1549984,"ECCENTRICITY":0.00104519,"INCLINATION":71.0223,"RA_OF_ASC_NODE":164.9453,"ARG_OF_PERICENTER":112.5254,"MEAN_ANOMALY":247.6977,"EPHEMERIS_TYPE":0,"CLASSIFICATION_TYPE":"U","NORAD_CAT_ID":23705,"ELEMENT_SET_NO":999,"REV_AT_EPOCH":56888,"BSTAR":0.00010343376,"MEAN_MOTION_DOT":1.55e-6,"MEAN_MOTION_DDOT":0},{"OBJECT_NAME":"SL-16 R/B","OBJECT_ID":"1996-051B","EPOCH":"2026-03-16T23:09:21.732768","MEAN_MOTION":14.12417532,"ECCENTRICITY":0.00144585,"INCLINATION":70.76,"RA_OF_ASC_NODE":159.8413,"ARG_OF_PERICENTER":136.7003,"MEAN_ANOMALY":223.5256,"EPHEMERIS_TYPE":0,"CLASSIFICATION_TYPE":"U","NORAD_CAT_ID":24298,"ELEMENT_SET_NO":999,"REV_AT_EPOCH":52267,"BSTAR":6.4978876e-5,"MEAN_MOTION_DOT":7.1e-7,"MEAN_MOTION_DDOT":0},{"OBJECT_NAME":"ORBVIEW 2 (SEASTAR)","OBJECT_ID":"1997-037A","EPOCH":"2026-03-17T03:42:54.996480","MEAN_MOTION":14.35500325,"ECCENTRICITY":0.00028917,"INCLINATION":98.858,"RA_OF_ASC_NODE":240.6648,"ARG_OF_PERICENTER":56.6439,"MEAN_ANOMALY":303.5022,"EPHEMERIS_TYPE":0,"CLASSIFICATION_TYPE":"U","NORAD_CAT_ID":24883,"ELEMENT_SET_NO":999,"REV_AT_EPOCH":50954,"BSTAR":0.0001015121,"MEAN_MOTION_DOT":2.45e-6,"MEAN_MOTION_DDOT":0},{"OBJECT_NAME":"SL-16 R/B","OBJECT_ID":"1998-043G","EPOCH":"2026-03-17T02:22:11.390880","MEAN_MOTION":14.26051487,"ECCENTRICITY":0.00098295,"INCLINATION":98.8266,"RA_OF_ASC_NODE":29.5151,"ARG_OF_PERICENTER":359.5865,"MEAN_ANOMALY":0.5305,"EPHEMERIS_TYPE":0,"CLASSIFICATION_TYPE":"U","NORAD_CAT_ID":25400,"ELEMENT_SET_NO":999,"REV_AT_EPOCH":44004,"BSTAR":3.7283468e-5,"MEAN_MOTION_DOT":4.4e-7,"MEAN_MOTION_DDOT":0},{"OBJECT_NAME":"SL-16 R/B","OBJECT_ID":"1998-045B","EPOCH":"2026-03-16T23:45:05.346144","MEAN_MOTION":14.16194057,"ECCENTRICITY":0.00072147,"INCLINATION":71.012,"RA_OF_ASC_NODE":166.2234,"ARG_OF_PERICENTER":356.7335,"MEAN_ANOMALY":3.374,"EPHEMERIS_TYPE":0,"CLASSIFICATION_TYPE":"U","NORAD_CAT_ID":25407,"ELEMENT_SET_NO":999,"REV_AT_EPOCH":42813,"BSTAR":0.0001317333,"MEAN_MOTION_DOT":2.13e-6,"MEAN_MOTION_DDOT":0},{"OBJECT_NAME":"ISS (ZARYA)","OBJECT_ID":"1998-067A","EPOCH":"2026-03-17T04:38:23.008704","MEAN_MOTION":15.48337753,"ECCENTRICITY":0.00062264,"INCLINATION":51.6337,"RA_OF_ASC_NODE":35.2624,"ARG_OF_PERICENTER":201.0018,"MEAN_ANOMALY":159.0715,"EPHEMERIS_TYPE":0,"CLASSIFICATION_TYPE":"U","NORAD_CAT_ID":25544,"ELEMENT_SET_NO":999,"REV_AT_EPOCH":55749,"BSTAR":0.00023613801,"MEAN_MOTION_DOT":0.0001229,"MEAN_MOTION_DDOT":0},{"OBJECT_NAME":"CZ-4B R/B","OBJECT_ID":"1999-025C","EPOCH":"2026-03-17T03:28:21.017280","MEAN_MOTION":14.18266864,"ECCENTRICITY":0.00363729,"INCLINATION":98.661,"RA_OF_ASC_NODE":120.2491,"ARG_OF_PERICENTER":324.8831,"MEAN_ANOMALY":101.9396,"EPHEMERIS_TYPE":0,"CLASSIFICATION_TYPE":"U","NORAD_CAT_ID":25732,"ELEMENT_SET_NO":999,"REV_AT_EPOCH":38922,"BSTAR":4.5056954e-5,"MEAN_MOTION_DOT":5.0e-7,"MEAN_MOTION_DDOT":0},{"OBJECT_NAME":"OKEAN-O","OBJECT_ID":"1999-039A","EPOCH":"2026-03-17T03:42:55.196928","MEAN_MOTION":14.80347813,"ECCENTRICITY":0.00010417,"INCLINATION":97.9425,"RA_OF_ASC_NODE":135.9698,"ARG_OF_PERICENTER":74.0736,"MEAN_ANOMALY":286.0591,"EPHEMERIS_TYPE":0,"CLASSIFICATION_TYPE":"U","NORAD_CAT_ID":25860,"ELEMENT_SET_NO":999,"REV_AT_EPOCH":43549,"BSTAR":9.0782036e-5,"MEAN_MOTION_DOT":6.4e-6,"MEAN_MOTION_DDOT":0},{"OBJECT_NAME":"SL-16 R/B","OBJECT_ID":"1999-039B","EPOCH":"2026-03-17T03:03:48.525408","MEAN_MOTION":14.81741981,"ECCENTRICITY":0.00137592,"INCLINATION":97.9949,"RA_OF_ASC_NODE":135.2128,"ARG_OF_PERICENTER":229.8451,"MEAN_ANOMALY":130.1558,"EPHEMERIS_TYPE":0,"CLASSIFICATION_TYPE":"U","NORAD_CAT_ID":25861,"ELEMENT_SET_NO":999,"REV_AT_EPOCH":43796,"BSTAR":7.3012379e-5,"MEAN_MOTION_DOT":5.22e-6,"MEAN_MOTION_DDOT":0},{"OBJECT_NAME":"DELTA 2 R/B","OBJECT_ID":"1999-041E","EPOCH":"2026-03-17T05:29:35.625120","MEAN_MOTION":14.11859475,"ECCENTRICITY":0.05025533,"INCLINATION":51.7613,"RA_OF_ASC_NODE":271.1652,"ARG_OF_PERICENTER":10.6705,"MEAN_ANOMALY":350.4432,"EPHEMERIS_TYPE":0,"CLASSIFICATION_TYPE":"U","NORAD_CAT_ID":25876,"ELEMENT_SET_NO":999,"REV_AT_EPOCH":36409,"BSTAR":0.00017302671,"MEAN_MOTION_DOT":8.33e-6,"MEAN_MOTION_DDOT":0}]
