SL-16 R/B               
1 22803U 93059B   26076.17026170  .00000210  00000+0  12741-3 0  9996
2 22803  70.9931 355.3525 0018098 205.5630 154.4601 14.17232447680595
ARIANE 40 R/B           
1 22830U 93061H   26076.17042774  .00000191  00000+0  85854-4 0  9991
2 22830  98.4902 144.9099 0009578 260.3568  99.6534 14.32864934695172
COSMOS 2278             
1 23087U 94023A   26075.59934392 -.00000118  00000+0 -37212-4 0  9992
2 23087  71.0546 160.6430 0008531   1.0318 359.0821 14.14379394645788
SL-16 R/B               
1 23088U 94023B   26076.20825177 -.00000089  00000+0 -21201-4 0  9990
2 23088  70.9990  55.0959 0005578 278.2173  81.8316 14.15009980647152
SL-16 R/B               
1 23343U 94074B   26076.09871367  .00000428  00000+0  63957-4 0  9998
2 23343  97.7098 106.6163 0006356 184.5792 239.9711 14.79416632688340
SL-16 R/B               
1 23405U 94077B   26076.18695249  .00000302  00000+0  17860-3 0  9995
2 23405  70.9851 336.7178 0002659 202.9854 157.1150 14.15564072617293
ARIANE 40+ R/B          
1 23561U 95021B   26076.18207654  .00000261  00000+0  97196-4 0  9992
2 23561  98.4483 147.5628 0007881 116.9215 297.6970 14.39777885620329
SL-16 R/B               
1 23705U 95058B   26075.98229735  .00000155  00000+0  10343-3 0  9993
2 23705  71.0223 164.9453 0010451 112.5254 247.6977 14.15499840568889
SL-16 R/B               
1 24298U 96051B   26075.96483487  .00000071  00000+0  64979-4 0  9991
2 24298  70.7600 159.8413 0014458 136.7003 223.5256 14.12417532522677
ORBVIEW 2 (SEASTAR)     
1 24883U 97037A   26076.15480320  .00000245  00000+0  10151-3 0  9996
2 24883  98.8580 240.6648 0002891  56.6439 303.5022 14.35500325509544
SL-16 R/B               
1 25400U 98043G   26076.09874295  .00000044  00000+0  37283-4 0  9994
2 25400  98.8266  29.5151 0009829 359.5865   0.5305 14.26051487440047
SL-16 R/B               
1 25407U 98045B   26075.98964521  .00000213  00000+0  13173-3 0  9991
2 25407  71.0120 166.2234 0007214 356.7335   3.3740 14.16194057428134
ISS (ZARYA)             
1 25544U 98067A   26076.19332186  .00012290  00000+0  23614-3 0  9996
2 25544  51.6337  35.2624 0006226 201.0018 159.0715 15.48337753557491
CZ-4B R/B               
1 25732U 99025C   26076.14468770  .00000050  00000+0  45057-4 0  9991
2 25732  98.6610 120.2491 0036372 324.8831 101.9396 14.18266864389229
OKEAN-O                 
1 25860U 99039A   26076.15480552  .00000640  00000+0  90782-4 0  9991
2 25860  97.9425 135.9698 0001041  74.0736 286.0591 14.80347813435498
SL-16 R/B               
1 25861U 99039B   26076.12764497  .00000522  00000+0  73012-4 0  9998
2 25861  97.9949 135.2128 0013759 229.8451 130.1558 14.81741981437965
DELTA 2 R/B             
1 25876U 99041E   26076.22888455  .00000833  00000+0  17303-3 0  9994
2 25876  51.7613 271.1652 0502553  10.6705 350.4432 14.11859475364094
